Address,AddressType,AddressSource,ShipVia,AddressDefault,Status,AddressID,AddressName,Line1,Line2,City,State,PostalCode,Country,Phone,Fax,LeadDays,Accounting,Shipping,Notes
1,Company,ROANWELL,,111,Active,HQ,Roanwell Corporation,461 Timpson Pl,,Bronx,NY,10455,US,718-401-0288,,,FALSE,TRUE,
2,Customer,GENTEX,,111,Active,GENTEX,Gentex,9859 7TH STREET ,,RANCHO CUCAMONGA,CA,91730,UNITED STATES,909-257-3514,909-481-7759,,FALSE,TRUE,
3,Customer,DLA,,111,Active,DLA,DLA LAND & MARITIME,2001 NORMANDY DRIVE DOOR 113 TO 134,,NEW CUMBERLAND,PA,17070-5002,UNITED STATES,,,,FALSE,TRUE,
7,Customer,GENTEX,,0,Active,GENTEX PA,Gentex,324 MAIN STREET,,SIMPSOM ,PA,18407,UNITED STATES,,,,FALSE,TRUE,
2845,Customer,AMEMIN,,111,Active,Main,AMERICAN MINE POWER INC.,584 RAGLAND RD.,,BECKLEY,WV,25801,USA,,,0,FALSE,TRUE,Added via script
2877,Customer,AZTCOM,,111,Active,Main,AZTEC COMPUTERS,ELIZABETH A 4879 STATE ST.,,BETTENDORF,IA,52722,USA,,,0,FALSE,TRUE,Added via script
2908,Customer,BOTLIN,,111,Active,Main,BOTTOM LINE MILITARY SALES,400 ALABAMA AVE BLDG 548,,TYNDALL AFB,FL,32403-1297,USA,,,0,FALSE,TRUE,Added via script
2939,Customer,DEFSUP,,111,Active,Main,DEFENSE SUPP. OF EL. COMP. INC.,677 DAVE NISBET DRIVE SUITE 107,,CAPE CANAVERAL,FL,32920,USA,,,0,FALSE,TRUE,Added via script
2970,Customer,ENTRUS,,111,Active,Main,ENTRUST,1187 PARK PLACE RECEIVING DOCK (DOOR 7),,SHAKOPEE,MN,55379,USA,,,0,FALSE,TRUE,Added via script
3001,Customer,H.KTEC,,111,Active,Main,H.K. TECHNOLOGIES INC,43-32 22ND ST. SUITE 405,,LONG ISLAND CITY,NY,1101,USA,,,0,FALSE,TRUE,Added via script
3032,Customer,KBRWYL,,111,Active,Main,KBR WYLE SERVICES,MSOC-BLDG 416 2101 NASA PARKWAY BLDG 420,,MSOC HOUSTON,TX,77058,USA,,,0,FALSE,TRUE,Added via script
3063,Customer,MILAIR,,111,Active,Main,MILLION AIR,7810 ANDREWS ST. N.E. SUITE 134,,MOSES LAKE,WA,98837,USA,,,0,FALSE,TRUE,Added via script
3093,Customer,ORISER,,111,Active,Main,ORI SERVICES CORPORATION,P.O. BOX 80516,,SAN DIEGO,CA,92138,USA,,,0,FALSE,TRUE,Added via script
3125,Customer,ROCCOL,,0,Active,Ship04,ROCKWELL COLLINS,27300 SW PARKWAY,,WILSONVILLE,OR,97070-8735,USA,,,0,FALSE,TRUE,Added via script
3157,Customer,STAASS,,111,Active,Main,STANLEY ASSOCIATES INC.,1101 REMOUNT RD. SUITE 900 N,,CHARLESTON,SC,29406,USA,,,0,FALSE,TRUE,Added via script
3188,Customer,USSFRE,,111,Active,Main,USS FREEDOM LCS-1,3985 CUMMINGS RD. BLDG: 116,,SAN DIEGO,CA,92136,USA,,,0,FALSE,TRUE,Added via script
3217,Customer,NPTU-CHARLESTON,,111,Active,1,NPTU CHARLESTON,"260 Snow Point Rd,",,Goose Creek,SC,29445,UNITED STATES,,,,FALSE,TRUE,
3218,Customer,ELMECINC,,111,Active,1,ELMEC INC ,7 Raymond Avenue,"Building B, Suite 9",Salem,NH,3079,UNITED STATES,,,,FALSE,TRUE,
3216,Customer,ANIINC,,0,Active,ship02,ANIXTER INC.,7 SANTA FE WAY,,LANCASTER,PA,17603,USA,,,,FALSE,TRUE,
2815,Customer,85,,111,Active,Main,85,7801 GW MAEHR ROAD,,WACO,TX,76705,USA,,,0,FALSE,TRUE,Added via script
2816,Customer,FIREAG,,111,Active,Main,FIRE EAGLE INC.,1045 MILL CREEK DRIVE,,FEASTERVILLE,PA,19053,USA,,,0,FALSE,TRUE,Added via script
2817,Customer,MOTSOL,,111,Active,Main,MOTOROLA SOLUTIONS,7408 NEWFOUNDLAND WAY,,GAINESVILLE,VA,20155,USA,,,0,FALSE,TRUE,Added via script
2818,Customer,1SOBUS,,111,Active,Main,1SOMXG BUSINESS OFFICE,230 TERRY AVE BLDG 90135,,HURLBURT FIELD,FL,32544,USA,,,0,FALSE,TRUE,Added via script
2819,Customer,1STSPE,,111,Active,Main,1ST SPECIAL OPER. SUPP. SQUA.,EMPTY,,HURLBURT FIELD,FL,32544,USA,,,0,FALSE,TRUE,Added via script
2820,Customer,323GLO,,111,Active,Main,323 GLOBAL SOURCING,400 LIVELY BLVD.,,ELK GROVE VILLAGE,IL,60007,USA,,,0,FALSE,TRUE,Added via script
2821,Customer,413FLT,,111,Active,Main,413 FLT,306 W F AVE BLDG 439,,EGLIN AFB,FL,32542,USA,,,0,FALSE,TRUE,Added via script
2822,Customer,96T0SS,,111,Active,Main,96TH 0SS OSL,504 N. BARRANCAS AVE BLDG 32 ROOM 107,,EGLIN,FL,32542,USA,,,0,FALSE,TRUE,Added via script
2823,Customer,97OSS,,111,Active,Main,97 OSS,101 SOUTH 6TH STREET BLDG 225 RM 101,,ALTUS AFB,OK,73523,USA,,,0,FALSE,TRUE,Added via script
2824,Customer,A.SSEM,,111,Active,Main,A.S.A.P. SEMICONDUCTOR,1 PETERS CANYON DLDG 100,,IRVINE,CA,92606,USA,,,0,FALSE,TRUE,Added via script
2825,Customer,ABSMAN,,111,Active,Main,ABSOLUTE MANUFACTURING,24 LOMAR PARK DRIVE UNIT F,,PEPPERELL,MA,1463,USA,,,0,FALSE,TRUE,Added via script
2826,Customer,ABSMAN,,0,Active,Ship01,ABSOLUTE MANUFACTURING,7B EASTPOINT DRIVE UNIT 106,,HOOKSETT,NH,3106,USA,,,0,FALSE,TRUE,Added via script
2827,Customer,ACCVOI,,111,Active,Main,ACCUSONIC VOICE SYSTEM,200 EXECUTIVE DR. UNIT G,,EDGEWOOD,NY,11717,USA,,,0,FALSE,TRUE,Added via script
2828,Customer,ACTELE,,111,Active,Main,ACTION ELECTRONICS INC.,25 WALPOLE PARK SOUTH,,WALPOLE,MA,2081,USA,,,0,FALSE,TRUE,Added via script
2829,Customer,ADSINC,,111,Active,Main,ADS INC.,EMPTY,,SAN DIEGO,CA,92110,USA,,,0,FALSE,TRUE,Added via script
2830,Customer,ADVMIN,,111,Active,Main,ADVANCE MINING SERVICES,838 THIRD STREET,,OAKMONT,PA,15139,USA,,,0,FALSE,TRUE,Added via script
2831,Customer,ADVCOM,,111,Active,Main,ADVANCED COMPUTER CONCEPTS,4297 PACIFIC HIGHWAY BLDG OT7,,SAN DIEGO,CA,92110-5000,USA,,,0,FALSE,TRUE,Added via script
2832,Customer,AERTEC,,111,Active,Main,AERO TECHNICAL COMPONENTS,2800 GANDY BLVD N.,,ST PETERSBURG,FL,33702,USA,,,0,FALSE,TRUE,Added via script
2833,Customer,AERGRO,,111,Active,Main,AEROBASE GROUP INC.,145 EAST DR. UNIT B,,MELBOURNE,FL,32904,USA,,,0,FALSE,TRUE,Added via script
2834,Customer,AIR&,,111,Active,Main,AIR & GROUND AVIATION,35 SW 12TH AVE SUITE 110,,DANIA BEACH,FL,33004,USA,,,0,FALSE,TRUE,Added via script
2835,Customer,AIRFRA,,111,Active,Main,AIR FRAME MFG.&SUPPLY CO. INC.,26135 W. TECHNOLOGY DRIVE,,VALENCIA,CA,91355-1138,USA,,,0,FALSE,TRUE,Added via script
2836,Customer,AIRSYS,,111,Active,Main,AIRBORNE SYSTEM NA OF NJ INC.,5800 MAGNOLIA AVENUE,,PENNSAUKEN,NJ,8109,USA,,,0,FALSE,TRUE,Added via script
2837,Customer,ALBDIS,,111,Active,Main,ALBERTSON'S DIST. CENTER,17505 NE,,SAN RAFAEL PORTLAND,OR,97230,USA,,,0,FALSE,TRUE,Added via script
2838,Customer,ALESCH,,111,Active,Main,ALEXANDER SCHNEIDER U.S.A. INC.,501 CAMBRIA AVE,,BENSALEM,PA,19020,USA,,,0,FALSE,TRUE,Added via script
2839,Customer,ALKENT,,111,Active,Main,ALKA-EAST ENTERPRISES INC.,21 GREY ROCK DRIVE,,GREENWICH,CT,6831,USA,,,0,FALSE,TRUE,Added via script
2840,Customer,ALLSYS,,111,Active,Main,ALL- SYSTEM AEROSPACE,75 BEACON DRIVE,,HOLBROOK,NY,11741,USA,,,0,FALSE,TRUE,Added via script
2841,Customer,ALLTEL,,111,Active,Main,ALLEN TEL PRODUCTS INC.,30 TV5 DRIVE,,HENDERSON,NV,89014,USA,,,0,FALSE,TRUE,Added via script
2842,Customer,ALLDEF,,111,Active,Main,ALLIED DEFENCE INDUSTRIES INC.,210 COMMERCE CIRCLE,,KEARNEYSVILLE,WV,25430,USA,,,0,FALSE,TRUE,Added via script
2843,Customer,ALPENT,,111,Active,Main,ALPHA ENTERPRISES,6667 B OLD DOMINION DR.,,MCCLEAN,VA,22101,USA,,,0,FALSE,TRUE,Added via script
2844,Customer,AMECRY,,111,Active,Main,AMERICAN CRYSTAL SUGAR COMPANY,1201 HWY 75 SOUTH,,CROOKSTON,MN,56716,USA,,,0,FALSE,TRUE,Added via script
2846,Customer,AMEMIN,,0,Active,Ship01,AMERICAN MINE POWER INC.,40 WINDSOR WAY,,LOGAN,WV,25601,USA,,,0,FALSE,TRUE,Added via script
2847,Customer,AMESYS,,111,Active,Main,AMERICAN SYSTEMS,40 WISCONSIN AVE SUITE 2,,NORWICH,CT,6360,USA,,,0,FALSE,TRUE,Added via script
2848,Customer,AMESYS,,0,Active,Ship01,AMERICAN SYSTEMS,243 VERGASON AVE EXTENSION SUITE A,,NORWICH,CT,6360,USA,,,0,FALSE,TRUE,Added via script
2849,Customer,AMETRI,,111,Active,Main,AMERICAN TRIM,1005 W. GRAND AVE,,LIMA,OH,45801,USA,,,0,FALSE,TRUE,Added via script
2850,Customer,AM-MAC,,111,Active,Main,AM-MAC,311 RT. 46,,WEST FAIRFIELD,NJ,7004,USA,,,0,FALSE,TRUE,Added via script
2851,Customer,AMRINT,,111,Active,Main,AMRON INTERNATIONAL INC,1380 ASPEN WAY,,VISTA,CA,92081,USA,,,0,FALSE,TRUE,Added via script
2852,Customer,ANAMIC,,111,Active,Main,ANACAPA MICRO PRODUCTS INC.,901 BAY AREA BLVD,,HOUSTON,TX,77058,USA,,,0,FALSE,TRUE,Added via script
2853,Customer,ANAMIC,,0,Active,Ship01,ANACAPA MICRO PRODUCTS INC.,NASA PARKWAYBLDG 420,,HOUSTON,TX,77058,USA,,,0,FALSE,TRUE,Added via script
2854,Customer,ANIXTE,,111,Active,Main,ANIXTER,400 RUNNING PUMP RD.,,LANCASTER,PA,17603,USA,,,0,FALSE,TRUE,Added via script
2855,Customer,ANIXTE,,0,Active,Ship01,ANIXTER,7 SANTA FE WAY,,CRANBURY,NJ,8512,USA,,,0,FALSE,TRUE,Added via script
2856,Customer,ANICAN,,111,Active,Main,ANIXTER CANADA INC.,P.O. BOX 3074,,GLENVIEW,IL,60026,USA,,,0,FALSE,TRUE,Added via script
2857,Customer,ANIINC,,111,Active,Main,ANIXTER INC.,400 RUNNING PUMP ROAD,,LANCASTER,PA,17603,USA,,,0,FALSE,TRUE,Added via script
2858,Customer,ANIINC,,0,Active,Ship01,ANIXTER INC.,3400 LWRNCEVILLE,,SUWANEE R SUWANEE,GA,30024,USA,,,0,FALSE,TRUE,Added via script
2859,Customer,APPTEC,,111,Active,Main,APPLIED TECH,5200 POTOMAC DRIVE,,KING GEORGE,VA,22485,USA,,,0,FALSE,TRUE,Added via script
2860,Customer,APPVIO,,111,Active,Main,APPVION,ROARING SPRING MILL 100 PAPER MILL RD,,ROARING SPRING,PA,16673,USA,,,0,FALSE,TRUE,Added via script
2861,Customer,APPVIO,,0,Active,Ship01,APPVION,P.O. BOX 5226,,JANESVILLE,WI,53547,USA,,,0,FALSE,TRUE,Added via script
2862,Customer,ARE51,,111,Active,Main,AREA 51 - ESG INC.,51 POST,,IRVINE,CA,92618-5216,USA,,,0,FALSE,TRUE,Added via script
2863,Customer,ARIAER,,111,Active,Main,ARIES AEROSPACE LLC,1800 SW 34TH STREET SUITE 103,,FT LAUDERDALE,FL,33315,USA,,,0,FALSE,TRUE,Added via script
2864,Customer,ARNELE,,111,Active,Main,ARNAT ELECTRONICS CORP.,503 SOUTH BROADWAY STE 215,,YONKERS,NY,10705,USA,,,0,FALSE,TRUE,Added via script
2865,Customer,ARRDYN,,111,Active,Main,ARROW DYNAMICS LLC,1671 NW 144TH TERRACE,,SUNRISE,FL,33323,USA,,,0,FALSE,TRUE,Added via script
2866,Customer,AR-INC,,111,Active,Main,AR-TECH INC,12 TECHNOLOGY DRIVE SUITE 9,,EAST SETAUKEY,NY,1173,USA,,,0,FALSE,TRUE,Added via script
2867,Customer,AR-INC,,0,Active,Ship01,AR-TECH INC,12 TECHNOLOGY DRIVE SUITE 9,,EAST SETAUKEY,NY,11733,USA,,,0,FALSE,TRUE,Added via script
2868,Customer,ASSIND,,111,Active,Main,ASSOCIATED INDUSTRIES,11347 VANOWEN STREET,,NORTH HOLLYWOOD,CA,91605,USA,,,0,FALSE,TRUE,Added via script
2869,Customer,ASTELE,,111,Active,Main,ASTROCOM ELECTRONICS INC,115 D.K. LIFGREN DRIVE,,ONEONTA,NY,13820,USA,,,0,FALSE,TRUE,Added via script
2870,Customer,ATTINT,,111,Active,Main,ATTOP INTERNATIONAL LLC,15318 E VALLEY BLVD,,CITY OF INDUSTRY,CA,91746,USA,,,0,FALSE,TRUE,Added via script
2871,Customer,AUTBUS,,111,Active,Main,AUTOMATED BUSINESS POWER INC.,8677 GROVEMONT CIRCLE,,GAITHERSBURG,MD,20877,USA,,,0,FALSE,TRUE,Added via script
2872,Customer,AVISYS,,111,Active,Main,AVIATION SYSTEMS INTEGRATION ,US ARMY-S3I PO # SB-103625 6263 HACKBERRY RD,,REDSTONE ARSENAL,AL,35898,USA,,,0,FALSE,TRUE,Added via script
2873,Customer,AVIOSU,,111,Active,Main,AVIOSUPPORT,8525 120TH AVE N.E SUITE 300,,KIRKLAND,WA,98033,USA,,,0,FALSE,TRUE,Added via script
2874,Customer,AVILTD,,111,Active,Main,AVIO-TECH LTD.,6951 HOLTON RD.,,TWIN LAKE,MI,49457,USA,,,0,FALSE,TRUE,Added via script
2875,Customer,AVTSIM,,111,Active,Main,AVT SIMULATION,2603 CHALLENGER TECH COURT SUITE 180,,ORLANDO,FL,32826,USA,,,0,FALSE,TRUE,Added via script
2876,Customer,AWDINC,,111,Active,Main,AWDATA INC.,1020 NORTH POINT INDUSTRIAL BLVD,,HANAHAN,SC,29410,USA,,,0,FALSE,TRUE,Added via script
2878,Customer,AZTGLO,,111,Active,Main,AZTEC GLOBAL SOLUTIONS,1201 ACTIVITY DRIVE,,VISTA,CA,92081-8510,USA,,,0,FALSE,TRUE,Added via script
2879,Customer,BAESYS,,111,Active,Main,BAE SYSTEMS,P.O. BOX 471518,,CHARLOTTE,NC,28247,USA,,,0,FALSE,TRUE,Added via script
2880,Customer,BAESYS,,0,Active,Ship01,BAE SYSTEMS,P.O. BOX 486,,WILMINGTON,CA,90748,USA,,,0,FALSE,TRUE,Added via script
2881,Customer,BAESYS,,0,Active,Ship02,BAE SYSTEMS,23535 COTTONWOOD PARKWAY,,CALIFORNIA,MD,20619,USA,,,0,FALSE,TRUE,Added via script
2882,Customer,BAESYS,,0,Active,Ship03,BAE SYSTEMS,BAE SYSTEMS TSS INC 23535 COTTONWOOD PKWY,,CALIFORNIA,MD,2019,USA,,,0,FALSE,TRUE,Added via script
2883,Customer,BAESYS,,0,Active,Ship04,BAE SYSTEMS,23535 COTTONWOOD PARKWAY,,CALIFORNIA,MD,20850,USA,,,0,FALSE,TRUE,Added via script
2884,Customer,BAESYS,,0,Active,Ship05,BAE SYSTEMS,P.O BOX 471518,,CHARLOTTE,NC,28247,USA,,,0,FALSE,TRUE,Added via script
2885,Customer,BAESYS,,0,Active,Ship06,BAE SYSTEMS,44411 PECAN CT,,CALIFORNIA,MD,20619,USA,,,0,FALSE,TRUE,Added via script
2886,Customer,BAESYS,,0,Active,Ship07,BAE SYSTEMS,557 MARY ESTHER CUT-OFF FT,,WALTON BEACH,FL,32548-4090,USA,,,0,FALSE,TRUE,Added via script
2887,Customer,BALCOR,,111,Active,Main,BALL CORPORATION,11 ADAMS STREET,,SARATOGA,NY,12834,USA,,,0,FALSE,TRUE,Added via script
2888,Customer,BATIRO,,111,Active,Main,BATH IRON WORKS,ACE WAREHOUSE 76 NEW MEADOWS RD,,WEST BATH,ME,4530,USA,,,0,FALSE,TRUE,Added via script
2889,Customer,BATIRO,,0,Active,Ship01,BATH IRON WORKS,16 MALLET PARK BATH RD.,,BRUNSWICK,ME,4011,USA,,,0,FALSE,TRUE,Added via script
2890,Customer,BATIRO,,0,Active,Ship02,BATH IRON WORKS,ACE WAREHOUSE 203 READ STREET BAY # 4,,PORTLAND,ME,4103,USA,,,0,FALSE,TRUE,Added via script
2891,Customer,BATIRO,,0,Active,Ship03,BATH IRON WORKS,203 READ STREET BAY 4,,PORTLAND,ME,4103,USA,,,0,FALSE,TRUE,Added via script
2892,Customer,BATIRO,,0,Active,Ship04,BATH IRON WORKS,16 MALLET PARK BATH ROAD,,BRUNSWICK,ME,4011,USA,,,0,FALSE,TRUE,Added via script
2893,Customer,BATIRO,,0,Active,Ship05,BATH IRON WORKS,700 WASHINGTON STREET,,BATH,ME,4530,USA,,,0,FALSE,TRUE,Added via script
2894,Customer,BCPSYS,,111,Active,Main,BCP SYSTEMS INC,1560 S.SINCLAIR STREET,,ANAHEIM,CA,92806,USA,,,0,FALSE,TRUE,Added via script
2895,Customer,BECMAR,,111,Active,Main,BECHTEL MARINE PROPULSION,814 PITSBURGH-MCKEESPORT BLVD.,,WEST MIFFLIN,PA,15123,USA,,,0,FALSE,TRUE,Added via script
2896,Customer,BELMIL,,111,Active,Main,BELGIAN MIL. SUPPLY OFFICE,8810 JERICHO CITY DRIVE,,LANDOVER,MD,20785,USA,,,0,FALSE,TRUE,Added via script
2897,Customer,BELHEL,,111,Active,Main,BELL HELICOPTER,P.O. BOX770902,,FORT WORTH,TX,76177-0090,USA,,,0,FALSE,TRUE,Added via script
2898,Customer,BENAIR,,111,Active,Main,BENDER AIRCRAFT PARTS,175 EL PINO DRIVE,,NEW SMYRNA,FL.,32168-9078,USA,,,0,FALSE,TRUE,Added via script
2899,Customer,BENAIR,,0,Active,Ship01,BENDER AIRCRAFT PARTS,BENDER AIRCRAFT PARTS INC. 175 EL PINO DRIVE,,NEW SMYRNA BEACH,FL,32168-9078,USA,,,0,FALSE,TRUE,Added via script
2900,Customer,BENAIR,,0,Active,Ship02,BENDER AIRCRAFT PARTS,175 EL PINO DRIVE,,NEW SMYRNA BEACH,FL,32168,USA,,,0,FALSE,TRUE,Added via script
2901,Customer,BHAELE,,111,Active,Main,BHARAT ELECTRONICS LTD,150-15 183RD STREET,,JAMAICA,NY,11413,USA,,,0,FALSE,TRUE,Added via script
2902,Customer,BHAELE,,0,Active,Ship01,BHARAT ELECTRONICS LTD,53 HILTON AVE,,GARDEN CITY,NY,11530,USA,,,0,FALSE,TRUE,Added via script
2903,Customer,BISIND,,111,Active,Main,BISCO INDUSTRIES,4400 W WALNUT HILL LANE STE130,,IRVING,TX,75038,USA,,,0,FALSE,TRUE,Added via script
2904,Customer,BLUAER,,111,Active,Main,BLUE AEROSPACE LLC,6211 N. NOB HILL ROAD,,TAMARAC,FL,33321-6422,USA,,,0,FALSE,TRUE,Added via script
2905,Customer,BMPBET,,111,Active,Main,BMPC BETTIS LABORATORY ERIN SVEC,POST OFFICE BOX 391,,WEST MIFFLIN,PA,15122-0391,USA,,,0,FALSE,TRUE,Added via script
2906,Customer,BMPC-K,,111,Active,Main,BMPC-KAPL,2401 RIVER ROAD,,SCHENECTADY,NY,12309,USA,,,0,FALSE,TRUE,Added via script
2907,Customer,BMPC-K,,0,Active,Ship01,BMPC-KAPL,BMPC-BETTIS 814 PITTSBURG-MCKEEPSPORT BLVD,,WEST MIFFLIN,PA,15122-2849,USA,,,0,FALSE,TRUE,Added via script
2909,Customer,BROMFG,,111,Active,Main,BROOK-TEL MFG. & SUPPLY,2338 MCDONALD AVE. NEW,,BROOKLYN,NY,11223,USA,,,0,FALSE,TRUE,Added via script
2910,Customer,BURPRO,,111,Active,Main,BURKE PRODUCTS INC.,1355 ENTERPRISE LANE,,XENIA,OH,45385,USA,,,0,FALSE,TRUE,Added via script
2911,Customer,BURINC,,111,Active,Main,BURRANA INC.,1778 ZINETTA RD. SUITE A,,CALEXICO,CA,92231,USA,,,0,FALSE,TRUE,Added via script
2912,Customer,BURINC,,0,Active,Ship01,BURRANA INC.,743 WEST 5 1200 NORTH SUITES 500,,SPRINGVILLE,UT,84663,USA,,,0,FALSE,TRUE,Added via script
2913,Customer,CABIND,,111,Active,Main,CABERRA INDUSTRIES INC.,800 RESEARCH PARKWAY,,MERIDEN,CT,6450,USA,,,0,FALSE,TRUE,Added via script
2914,Customer,CAEUSA,,111,Active,Main,CAE USA INC.,P.O. BOX 15000,,TAMPA,FL,33634,USA,,,0,FALSE,TRUE,Added via script
2915,Customer,CAEUSA,,0,Active,Ship01,CAE USA INC.,4908 TAMPA WEST BOULEVARD,,TAMPA,FL,33634-2481,USA,,,0,FALSE,TRUE,Added via script
2916,Customer,CALFIR,,111,Active,Main,CAL FIRE AVIATION MANAGEMENT,320 SCANNEL DR,,SAN MATEO,CA,94402,USA,,,0,FALSE,TRUE,Added via script
2917,Customer,CALMAR,,111,Active,Main,CALIFONIA MARINE SUPPLY INC.,1650 INDUSTRIAL BLVD,,CHULA VISTA,CA,91911,USA,,,0,FALSE,TRUE,Added via script
2918,Customer,CAMAIR,,111,Active,Main,CAMAR AIRCRAFT PARTS,754 FLYNN ROAD,,CAMARILLO,CA,93012,USA,,,0,FALSE,TRUE,Added via script
2919,Customer,CARBAT,,111,Active,Main,CARLTON BATES COMPANY,10814 W. 78TH STREET,,SHAWNEE,KS,66214,USA,,,0,FALSE,TRUE,Added via script
2920,Customer,CARENG,,111,Active,Main,CARROL ENGINEERING CO.,227 INDUSTRIAL PARK ROAD P.O. BOX 860,,HARLAN,KY,40831,USA,,,0,FALSE,TRUE,Added via script
2921,Customer,CARENG,,0,Active,Ship01,CARROL ENGINEERING CO.,131 CARRIKK DR HWY 840 PO BOX 860,,HARLAN,KY,40831,USA,,,0,FALSE,TRUE,Added via script
2922,Customer,CBOCOR,,111,Active,Main,CBOL CORPORATION,19850 PLUMMER STREET,,CHATSWORTH,CA,91311,USA,,,0,FALSE,TRUE,Added via script
2923,Customer,CHACOM,,111,Active,Main,CHANNEL COMP LLC,1901 5TH AVE SOUTH,,ST. PETERSBURG,FL,33712,USA,,,0,FALSE,TRUE,Added via script
2924,Customer,CHAAER,,111,Active,Main,CHARIOT AEROSPACE MATERIALS INC.,4394 NW 120TH AVE,,CORAL SPRINGS,FL,33065,USA,,,0,FALSE,TRUE,Added via script
2925,Customer,CHI-,,111,Active,Main,CHIP - TECH LTD,6 DUBON COURT SUITE B,,FARMINGDALE,NY,11735,USA,,,0,FALSE,TRUE,Added via script
2926,Customer,CHUFED,,111,Active,Main,CHUGACH FEDERAL SOLUTIONS INC.,3800 CENTERPOINT DR SUITE 1200,,ANCHORGE,AK,99503,USA,,,0,FALSE,TRUE,Added via script
2927,Customer,CHUFED,,0,Active,Ship01,CHUGACH FEDERAL SOLUTIONS INC.,814 GREENBRIER CIRCLE SUITE P,,CHESAPEAKE,VA,23320,USA,,,0,FALSE,TRUE,Added via script
2928,Customer,COLELE,,111,Active,Main,COLUMBIA ELECTRIC SUPPLY,P.O. BOX 743,,PASCO,WA,99301,USA,,,0,FALSE,TRUE,Added via script
2929,Customer,COLTEC,,111,Active,Main,COLUMBIA TECH,53 OTIS STREET,,WESTBOROUGH,MA,1581,USA,,,0,FALSE,TRUE,Added via script
2930,Customer,COMONE,,111,Active,Main,COMDERSON ONE,3325 SENN ROAD BLDG 55,,SAN CIEGO,CA,92136,USA,,,0,FALSE,TRUE,Added via script
2931,Customer,COM22,,111,Active,Main,COMDESRON 22,8870 FIRST STREET CEP-41,,NORFOLK,VA,23511,USA,,,0,FALSE,TRUE,Added via script
2932,Customer,COMINT,,111,Active,Main,COMTROL INTERNATIONAL,358 MAIN ST,,NORTH HUNTINGTON,PA,15642,USA,,,0,FALSE,TRUE,Added via script
2933,Customer,CONIND,,111,Active,Main,CONVOY INDUSTRIES,284 GLEN PLACE,,FRANKLIN LAKES,NJ,7417,USA,,,0,FALSE,TRUE,Added via script
2934,Customer,CORTEC,,111,Active,Main,CORNET TECH,6800 VERSAR CENTER SUITE 118,,SPRINGFIELD,VA,22151-4147,USA,,,0,FALSE,TRUE,Added via script
2935,Customer,CSCDET,,111,Active,Main,CSCS DET MAYPORT,1556 BALTIMORE STREET,,JACKSONVILLE,FL,32228,USA,,,0,FALSE,TRUE,Added via script
2936,Customer,DALAVI,,111,Active,Main,DALLAS AVIONICS,2525 SANTA ANNA AVE,,DALLAS,TX,75228,USA,,,0,FALSE,TRUE,Added via script
2937,Customer,DAVCLA,,111,Active,Main,DAVID CLARK COMPANY,360 FRANKLIN STREET BOX 15054,,WORCESTER,MA,1615,USA,,,0,FALSE,TRUE,Added via script
2938,Customer,DEFCOM,,111,Active,Main,DEFENSE COMMUNICATION SOLUTIONS,P.O.BOX 3145,,DANBURY,CT,6813,USA,,,0,FALSE,TRUE,Added via script
2940,Customer,DEFSUP,,0,Active,Ship01,DEFENSE SUPP. OF EL. COMP. INC.,5505 NORTH ATLANTIC AVE SUITE 107,,COCOA BEACH,FL,32931,USA,,,0,FALSE,TRUE,Added via script
2941,Customer,DELRES,,111,Active,Main,DELAWARE RESOURCE GROUP,1307 WEST STREET PO BOX 4070 BLDG 1307,,MCCHORD AFB,WA,98438,USA,,,0,FALSE,TRUE,Added via script
2942,Customer,DELRES,,0,Active,Ship01,DELAWARE RESOURCE GROUP,L3 COMM C17 TS WRI ATS 2323 VANDENBURG BLVD,,MCGUIRE AFB,NJ,8641,USA,,,0,FALSE,TRUE,Added via script
2943,Customer,DELELE,,111,Active,Main,DELTA ELECTRIC INC.,911 ENTERPRISE DRIVE,,CHERRY TREE LOGAN,WV,25601,USA,,,0,FALSE,TRUE,Added via script
2944,Customer,DERAER,,111,Active,Main,DERCO AEROSPACE INC.,8000 W. TOWER AVE,,MILWUKEE.,WI,53223,USA,,,0,FALSE,TRUE,Added via script
2945,Customer,DERAER,,0,Active,Ship01,DERCO AEROSPACE INC.,7300 OAKLEY INDUSTRIAL BLVD,,FAIRBURN,GA,30213,USA,,,0,FALSE,TRUE,Added via script
2946,Customer,DESBUI,,111,Active,Main,DESERT BUILDERS SUPPLY,460 N. MESA DR. # 116-A,,MESA,AZ,85201,USA,,,0,FALSE,TRUE,Added via script
2947,Customer,DETIND,,111,Active,Main,DETROIT INDUSTRIAL TOOL,10607 W. OKLAHOMA AVE.,,WEST ALLIS,WI,53227,USA,,,0,FALSE,TRUE,Added via script
2948,Customer,DETIND,,0,Active,Ship01,DETROIT INDUSTRIAL TOOL,15222 KESWICK ST,,VAN NUYS,CA,91405,USA,,,0,FALSE,TRUE,Added via script
2949,Customer,DMELE,,111,Active,Main,DM ELECTRONICS,37 HUGHES AVE,,HOBARTVILLE,NSW,2753,USA,,,0,FALSE,TRUE,Added via script
2950,Customer,DMELE,,0,Active,Ship01,DM ELECTRONICS,3501 JACK NORTHROP AVE SUITE # BR839,,HAWTHORNE,CA,90250,USA,,,0,FALSE,TRUE,Added via script
2951,Customer,DMELE,,0,Active,Ship02,DM ELECTRONICS,4283 EXPRESS LANE SUITE 5237-479,,SARASOTA,FL,34249,USA,,,0,FALSE,TRUE,Added via script
2952,Customer,DNHGLO,,111,Active,Main,DNH GLOBAL SOLUTIONS,3607 CRESTA CT,,OCEANSIDE,CA,92056,USA,,,0,FALSE,TRUE,Added via script
2953,Customer,DRG,,111,Active,Main,DRG,C17TS MCCHORD 1307 WEST STREET BLDG 1307,,MCCHORD AFB,WA,98438,USA,,,0,FALSE,TRUE,Added via script
2954,Customer,DSVAIR,,111,Active,Main,DSV AIR & SEA,800 FEDEEAL BLVD. DOOR 15,,CARTERET,NJ,7008,USA,,,0,FALSE,TRUE,Added via script
2955,Customer,DYNCOR,,111,Active,Main,DYNALEC CORPORATION,P.O. BOX 78099,,ST. LOUIS,MO,63178,USA,,,0,FALSE,TRUE,Added via script
2956,Customer,DYNCOR,,0,Active,Ship01,DYNALEC CORPORATION,87 WEST MAIN ST PO BOX 188,,SODUS,NY,14551-1052,USA,,,0,FALSE,TRUE,Added via script
2957,Customer,DYNCOR,,0,Active,Ship02,DYNALEC CORPORATION,79 ROTTERDAM RD,,SODUS,NY,14551-1052,USA,,,0,FALSE,TRUE,Added via script
2958,Customer,ELECON,,111,Active,Main,ELECTRICAL CONNECTIONS INT.,195 LEHIGH AVE UNITS 3,,LAKEWOOD,NY,8701,USA,,,0,FALSE,TRUE,Added via script
2959,Customer,ELEEQU,,111,Active,Main,ELECTRICAL EQUIPMENT CO.,P.O. BOX 37339,,RALEIGH,NC,27627-7339,USA,,,0,FALSE,TRUE,Added via script
2960,Customer,ELEEQU,,0,Active,Ship01,ELECTRICAL EQUIPMENT CO.,3798 VILLAGE AVE,,NORFOLK,VA,23502,USA,,,0,FALSE,TRUE,Added via script
2961,Customer,ELEEQU,,0,Active,Ship02,ELECTRICAL EQUIPMENT CO.,EECO NORFOLK 3798 VILLAGE AVE.,,NORFOLK,VA,23502-5606,USA,,,0,FALSE,TRUE,Added via script
2962,Customer,ELECTR,,111,Active,Main,ELECTRO-COMM,3114 VANOWEN STREET,,BURBANK,CA,91505,USA,,,0,FALSE,TRUE,Added via script
2963,Customer,ELECON,,111,Active,Main,ELECTRONIC CONNECTIONS,195 LEHIGH AVE BUILDING 3,,LAKEWOOD,NJ,8701,USA,,,0,FALSE,TRUE,Added via script
2964,Customer,ELTINC,,111,Active,Main,ELTRONIK INC.,417 COMMERCIAL,,AVECLIFFSIDE PARK,NJ,7010,USA,,,0,FALSE,TRUE,Added via script
2965,Customer,ELTINC,,0,Active,Ship01,ELTRONIK INC.,5 VELA WAY,,EDGEWATER,NJ,7020,USA,,,0,FALSE,TRUE,Added via script
2966,Customer,ELTINC,,0,Active,Ship02,ELTRONIK INC.,6102 PARK AVE,,WEST NEW YORK,NJ,7093,USA,,,0,FALSE,TRUE,Added via script
2967,Customer,EMPAVI,,111,Active,Main,EMPIRE AVIONICS CORP.,38 LOOP ROAD SUITE 201,,WHITE PLAINS,NY,10604,USA,,,0,FALSE,TRUE,Added via script
2968,Customer,EMPAVI,,0,Active,Ship01,EMPIRE AVIONICS CORP.,16 MT EBO RD SOUTH SUITE 21,,BREWSTER,NY,10509,USA,,,0,FALSE,TRUE,Added via script
2969,Customer,ENGELE,,111,Active,Main,ENGLEWOOD ELECTRIC SUPPLY,3550 179TH ST,,HAMMOND,IN,46323,USA,,,0,FALSE,TRUE,Added via script
2971,Customer,ESTPAL,,111,Active,Main,ESTERLINE PALOMAR PRODUCTS INC.,23042 ARROYO VISTA,,SANTA MARGARITA,CA,92688,USA,,,0,FALSE,TRUE,Added via script
2972,Customer,EVOMAR,,111,Active,Main,EVOLUTION MARKETS INC.,10 BANK STREET,,WHITE PLAINS,NY,10606,USA,,,0,FALSE,TRUE,Added via script
2973,Customer,EX-ELT,,111,Active,Main,EX- ELTRONICS INC.,137 EXPRESS STREET NEW,,PLAINVIEW,NY,11803,USA,,,0,FALSE,TRUE,Added via script
2974,Customer,EX-INC,,111,Active,Main,EX-ELTRONICS INC.,137 EXPRESS STREET NEW,,PLAINVIEW,NY,11803,USA,,,0,FALSE,TRUE,Added via script
2975,Customer,EXTAER,,111,Active,Main,EXTANT AEROSPACE,SYMETRICS INDUSTRIES LLC 1615 W. NASA BLVD,,MELBOURNE,FL,32901,USA,,,0,FALSE,TRUE,Added via script
2976,Customer,FAAINC,,111,Active,Main,FAAC INC.,1195 OAK VALLEY DRIVE,,ANN ARBOR,MI,48108,USA,,,0,FALSE,TRUE,Added via script
2977,Customer,FASCOM,,111,Active,Main,FASTENAL COMPANY,100 HOLLYDAYSBURG PLAZA,,DUNCANSVILLE,PA,16635,USA,,,0,FALSE,TRUE,Added via script
2978,Customer,FASCOM,,0,Active,Ship01,FASTENAL COMPANY,24 JENNIFER ROAD,,DUNCANSVILLE,PA,16635,USA,,,0,FALSE,TRUE,Added via script
2979,Customer,FASCOM,,0,Active,Ship02,FASTENAL COMPANY,5851 GUION ROAD,,INDIANAPOLIS,IN,46254,USA,,,0,FALSE,TRUE,Added via script
2980,Customer,FERCOM,,111,Active,Main,FEREBEE-JOHNSON COMPANY INC.,927 E WASHINGTON ST,,CONVINGTON,VA,24426-1069,USA,,,0,FALSE,TRUE,Added via script
2981,Customer,FIDTEC,,111,Active,Main,FIDELITY TECHNOLOGIES CORP,832 9TH STREET,,IMPERIAL BEACH,CA,91932,USA,,,0,FALSE,TRUE,Added via script
2982,Customer,FIDTEC,,0,Active,Ship01,FIDELITY TECHNOLOGIES CORP,3355 ILLINOIS ST RM. BS131,,GREAT LAKES,IL,60088,USA,,,0,FALSE,TRUE,Added via script
2983,Customer,FIDTEC,,0,Active,Ship02,FIDELITY TECHNOLOGIES CORP,BUILDING 2528 BALTIMORE RD,,MAYPORT,FL,32228,USA,,,0,FALSE,TRUE,Added via script
2984,Customer,FIDTEC,,0,Active,Ship03,FIDELITY TECHNOLOGIES CORP,3355 ILLINOIS ST. RM. BS131 P.O. BOX 886944,,GREAT LAKES,IL,60088,USA,,,0,FALSE,TRUE,Added via script
2985,Customer,FINPAP,,111,Active,Main,FINCH PAPER LLC,1 GLEN STREET,,GLENS FALLS,NY,12801,USA,,,0,FALSE,TRUE,Added via script
2986,Customer,FLISAF,,111,Active,Main,FLIGHT SAFETY INTERNATIONAL,700 NORTH 9TH STREET,,BROKEN ARROW,OK,74012,USA,,,0,FALSE,TRUE,Added via script
2987,Customer,FORINT,,111,Active,Main,FORTRADE INTERNATIONAL,1611 ST. ANDREWS DRIVE,,LAWRENCE,KS,66047,USA,,,0,FALSE,TRUE,Added via script
2988,Customer,GATCOM,,111,Active,Main,GATELY COMMUNICATION CO.,MISSION MOBILITY 4855 BROOKSIDE CT SUITE B,,NORFOLK,VA,23502,USA,,,0,FALSE,TRUE,Added via script
2989,Customer,GATCOM,,0,Active,Ship01,GATELY COMMUNICATION CO.,501 INDUSTRY DR.,,HAMPTON,VA,23661,USA,,,0,FALSE,TRUE,Added via script
2990,Customer,GDIT,,111,Active,Main,GDIT,44421 AIRPORT RD,,HOLLY I V CALIFONIA,MD,20619,USA,,,0,FALSE,TRUE,Added via script
2991,Customer,GDIT,,0,Active,Ship01,GDIT,808 LIVE OAK DR. SUITE 101,,CHESAPEAKE,VA,23320,USA,,,0,FALSE,TRUE,Added via script
2992,Customer,GENAER,,111,Active,Main,GENESYS AERO SYSTEM,ONE STEC WAY,,MINERIAL WELLS,TX,76067,USA,,,0,FALSE,TRUE,Added via script
2993,Customer,GLOMAR,,111,Active,Main,GLOBAL MARKET DEVELOPMENT INC.,200 EXECUTIVE DRIVE UNIT G,,EDGEWOOD,NY,11717,USA,,,0,FALSE,TRUE,Added via script
2994,Customer,GLOTEC,,111,Active,Main,GLOBAL TECH SERVICES,1919 WILLIAMS STREET SUITE 310,,SIMI VALLEY,CL,93065,USA,,,0,FALSE,TRUE,Added via script
2995,Customer,GMSCOR,,111,Active,Main,GMS CORPORATION,1984 ISAAC NEWTON SQUARE WEST SUITE 104,,RESTON,VA,20190,USA,,,0,FALSE,TRUE,Added via script
2996,Customer,GOLSTA,,111,Active,Main,GOLDEN STAR TECHNOLOGY INC.,12881 166TH STREET,,CERRITOS,CA,90703,USA,,,0,FALSE,TRUE,Added via script
2997,Customer,GRAYBA,,111,Active,Main,GRAYBAR,P.O. BOX 78099,,ST. LOUIS,MO,63178,USA,,,0,FALSE,TRUE,Added via script
2998,Customer,GRAYBA,,0,Active,Ship01,GRAYBAR,300 ENTERPRISE STREET,,BISMARCK,ND,58501,USA,,,0,FALSE,TRUE,Added via script
2999,Customer,GRAYBA,,0,Active,Ship02,GRAYBAY,3350 W EARLL DR,,PHOENIX,AZ,85017-5242,USA,,,0,FALSE,TRUE,Added via script
3000,Customer,GREIND,,111,Active,Main,GREER INDUSTRIES,2521 E. LOOP 820 N.,,FORT WORTH,TX,76118,USA,,,0,FALSE,TRUE,Added via script
3002,Customer,H.KTEC,,0,Active,Ship01,H.K. TECHNOLOGIES INC,303 5TH AVE,,NEW YORK,NY,10016,USA,,,0,FALSE,TRUE,Added via script
3003,Customer,HAGNOR,,111,Active,Main,HAGEMEYER NORTH AMERICA INC.,CALLER SERVICE 1819,,ALPHARETTA,GA,30023-1819,USA,,,0,FALSE,TRUE,Added via script
3004,Customer,HAG&,,111,Active,Main,HAGGARD & STOCKING ASS. INC.,P.O. BOX 240,,BEECH GROVE,IN,46107,USA,,,0,FALSE,TRUE,Added via script
3005,Customer,HAG&,,0,Active,Ship01,HAGGARD & STOCKING ASS. INC.,CRESTVIEW AEROSPACE-L3 5486 FAIRCHILD ROAD,,CRESTVIEW,FL,32539-8157,USA,,,0,FALSE,TRUE,Added via script
3006,Customer,HAG&,,0,Active,Ship02,HAGGARD & STOCKING ASS. INC.,5486 FAIRCHILD ROAD,,CRESTVIEW,FL,32539-8157,USA,,,0,FALSE,TRUE,Added via script
3007,Customer,HICOM,,111,Active,Main,HI COM,1711 CUDABACK AVE # 5111,,NIAGARA FALLS,NY,14303,USA,,,0,FALSE,TRUE,Added via script
3008,Customer,HOSCOM,,111,Active,Main,HOSE-MCCANN COMMUNICATIONS,1241 WEST NEWPORT CENTER DR.,,DEERFIELD BEACH,FL,33442,USA,,,0,FALSE,TRUE,Added via script
3009,Customer,HUNING,,111,Active,Main,HUNTINGTON INGALLS INC.,SHIPBUILDING WHSE. 221,,PASCAGOULA,MS,39567,USA,,,0,FALSE,TRUE,Added via script
3010,Customer,INDSTU,,111,Active,Main,INDEPENDENT STUDIO SERVICES,9545 WENTWORTH ST,,SUNLAND,CA,91040,USA,,,0,FALSE,TRUE,Added via script
3011,Customer,INDSTU,,0,Active,Ship01,INDEPENDENT STUDIO SERVICES,355 WOOD RD,,BRAINTREE,MA,02184-2409,USA,,,0,FALSE,TRUE,Added via script
3012,Customer,INTPRO,,111,Active,Main,INTEGRADED PROCUREMENT TECH.,7230 HOLLISTER AVE,,GOLETA,CA,93117,USA,,,0,FALSE,TRUE,Added via script
3013,Customer,INTPRO,,0,Active,Ship01,INTEGRATED PROCUREMENT TECH.,320 STORKE ROAD,,GOLETA,CA,93117,USA,,,0,FALSE,TRUE,Added via script
3014,Customer,INTSUP,,111,Active,Main,INTEGRATED SUPPLY SYSTEMS,708 PINE STREET,,HERNDON,VA,20170,USA,,,0,FALSE,TRUE,Added via script
3015,Customer,INTPTE,,111,Active,Main,INTRICOM PTE. LTD.,1260 RED F OX,,ROAAD ARDEN HILLS,MN,55112,USA,,,0,FALSE,TRUE,Added via script
3016,Customer,IRVSIM,,111,Active,Main,IRVING SIMON PHOTOGRAPHERS,146 MEACHAM AVE,,ELMONT,NY,11003,USA,,,0,FALSE,TRUE,Added via script
3017,Customer,J&MAIR,,111,Active,Main,J&M AIRCRAFT SUPPLY INC,378 MEADOW DR,,WEST SENECA,NY,14224-1569,USA,,,0,FALSE,TRUE,Added via script
3018,Customer,JACLEN,,111,Active,Main,JACOB LENZ,100 INDEPENDENCE DRIVE BLDG. 313,,CAMP DOUGLAS,WI,54618,USA,,,0,FALSE,TRUE,Added via script
3019,Customer,JANELE,,111,Active,Main,JAN ELECTRONICS,6 TRUMAN STREET,,NEW LONDON,CT,6320,USA,,,0,FALSE,TRUE,Added via script
3020,Customer,JBLSYS,,111,Active,Main,JBL SYSTEMS SOLUTIONS,9802 SHADED,,DAY LAUREL,MD,20723-5791,USA,,,0,FALSE,TRUE,Added via script
3021,Customer,JBN,,111,Active,Main,JBN,6813 GUILFORD CREST DRIVE,,APOLLO BEACH,FL,33572,USA,,,0,FALSE,TRUE,Added via script
3022,Customer,JCSSER,,111,Active,Main,JCS SERVICES,28845 DEODAR PLACE,,SAUGUS,CL,91390,USA,,,0,FALSE,TRUE,Added via script
3023,Customer,JEMELE,,111,Active,Main,JEM ELECTRONICS INC.,23 NATIONAL DRIVE,,FRANKLIN,MA,2038,USA,,,0,FALSE,TRUE,Added via script
3024,Customer,JGBENT,,111,Active,Main,JGB ENTERPRISES INC.,P.O. BOX 209 115 METROPOLITAN DR.,,LIVERPOOL,NY,13088-0209,USA,,,0,FALSE,TRUE,Added via script
3025,Customer,JITMIL,,111,Active,Main,JIT MILITARY SALES,26670 SUCCESS DRIVE SUITE D,,MADISON,AL,35756,USA,,,0,FALSE,TRUE,Added via script
3026,Customer,JO-INC,,111,Active,Main,JO-KELL INC.,1716 LAMBERT COURT,,CHESAPEAKE,VA,23320,USA,,,0,FALSE,TRUE,Added via script
3027,Customer,JO-INC,,0,Active,Ship01,JO-KELL INC.,628 INNOVATION DRIVE,,CHESAPEAKE,VA,23320,USA,,,0,FALSE,TRUE,Added via script
3028,Customer,JONGRA,,111,Active,Main,JON GRAYDON,4409 BROOK FOREST DRIVE,,POANAMA CITY,FL,32404,USA,,,0,FALSE,TRUE,Added via script
3029,Customer,JOSPET,,111,Active,Main,JOSEPH PETTIGREW SSGT USAF,7872 CONNECTICUT DRIVE BLDG 1540,,HILL AFB,UT,84056,USA,,,0,FALSE,TRUE,Added via script
3030,Customer,JOYELE,,111,Active,Main,JOYCE ELECTRONICS CORP.,2049 RANGE ROAD,,CLEARWATER,FL,33765,USA,,,0,FALSE,TRUE,Added via script
3031,Customer,KAMIND,,111,Active,Main,KAMAN INDUSTRIAL TECHNOLOGIES,COMMONWEALTH BRANDS INC 301 NORTH SCALES ST,,REIDSVILLE,NC,27320,USA,,,0,FALSE,TRUE,Added via script
3033,Customer,KNIELE,,111,Active,Main,KNIGHT ELECTRONICS INTL.,31 MYRTLE STREET,,MANHASSET,NY,11030,USA,,,0,FALSE,TRUE,Added via script
3034,Customer,KSGINT,,111,Active,Main,KSG INTERNATIONAL INC.,1017 CREST BROOK,,RIVERSIDE,CA,92506,USA,,,0,FALSE,TRUE,Added via script
3035,Customer,KWCON,,111,Active,Main,KW CONSULTANTS,5250 NEIL RD SUITE 210,,RENO,NV,89502,USA,,,0,FALSE,TRUE,Added via script
3036,Customer,KWCON,,0,Active,Ship01,KW CONSULTANTS,745 W. MOANA LN SUITE 210,,RENO,NV,89509,USA,,,0,FALSE,TRUE,Added via script
3037,Customer,LANCOR,,111,Active,Main,LANDOLL CORPORATION,P.O. BOX 111,,MARYSVILLE,KS,66508-0111,USA,,,0,FALSE,TRUE,Added via script
3038,Customer,LANCOR,,0,Active,Ship01,LANDOLL CORPORATION,PARTS DISTRIBUTION CENTER 1900 NORTH STREET,,MARYSVILLE,KS,66508,USA,,,0,FALSE,TRUE,Added via script
3039,Customer,LB&ASS,,111,Active,Main,LB&B ASSOCIATES INC.,2688 WODEN STREET BLDG 3304,,SAN DIEGO,CA,92136-5491,USA,,,0,FALSE,TRUE,Added via script
3040,Customer,LCSTRA,,111,Active,Main,LCS TRAINING FACILITY MAYPORT,FIDELITY TECHNOLOGIES 1558 WILD FREN DRIVE,,FLEMING ISLAND,FL,32003,USA,,,0,FALSE,TRUE,Added via script
3041,Customer,LEIINN,,111,Active,Main,LEIDOS INNOVATIONS CORPORATION,901 BAY AREA BLVD.,,HOUSTON,TX,77058,USA,,,0,FALSE,TRUE,Added via script
3042,Customer,LH4ASS,,111,Active,Main,LH4 ASSOCIATES LLC,1002 LINCOLN DRIVE WEST SUITE G,,MARLTON,NJ,8053,USA,,,0,FALSE,TRUE,Added via script
3043,Customer,LITCOM,,111,Active,Main,LITTORAL COMBAT SHIP (LTF) ,2680 WODEN ST. BLDG. 3304 SUITE 1,,SAN DIEGO,CA,91136,USA,,,0,FALSE,TRUE,Added via script
3044,Customer,LONINC,,111,Active,Main,LONGWAVE INC.,115 E CALIFORNIA AVE SUITE 400,,OKLAHOMA CITY,OK,73104,USA,,,0,FALSE,TRUE,Added via script
3045,Customer,MACAER,,111,Active,Main,MAC AEROSPACE CORPORATION,14558 LEE ROAD,,CHANTILLY,VA,20151-1632,USA,,,0,FALSE,TRUE,Added via script
3046,Customer,MACCOM,,111,Active,Main,MACKAY COMMUNICATIONS INC.,3691 TRUST DRIVE,,RALEIGH,NC,27616-2955,USA,,,0,FALSE,TRUE,Added via script
3047,Customer,MADHEI,,111,Active,Main,MADISON HEIGHTS ,1357 EAST LINCOLN AVE,,MADISON HEIGHTS,MI,48071,USA,,,0,FALSE,TRUE,Added via script
3048,Customer,MARELE,,111,Active,Main,MARSH ELETRONIC INC.,1563 SOUTH 101ST STREET,,MILWAUKEE,WI,53124-0608,USA,,,0,FALSE,TRUE,Added via script
3049,Customer,MAVENG,,111,Active,Main,MAVEN ENGINEERING CORPORATION ,15944 DERWOOD ROAD,,ROCKVILLE,MD,20855,USA,,,0,FALSE,TRUE,Added via script
3050,Customer,MCAARM,,111,Active,Main,MCALESTER ARMY AMMUNITION PLANT,1 C TREE RD. BLDG 8,,MCALESTER,OK,74501,USA,,,0,FALSE,TRUE,Added via script
3051,Customer,MCMAST,,111,Active,Main,MCMASTER-CARR,P.O. BOX 5516,,CHICAGO,IL,60680-5516,USA,,,0,FALSE,TRUE,Added via script
3052,Customer,MCMAST,,0,Active,Ship01,MCMASTER-CARR,600 N COUNTY LINE RD,,ELMHURST,IL,60126-2081,USA,,,0,FALSE,TRUE,Added via script
3053,Customer,MCMAST,,0,Active,Ship02,MCMASTER-CARR,200 AURORA INDUSTRIAL PKWY,,AURORA,OH,44202-8087,USA,,,0,FALSE,TRUE,Added via script
3054,Customer,MCMAST,,0,Active,Ship03,MCMASTER-CARR,1901 RIVERSIDE PKWY,,DOUGLASVILLE,GA,30135-3150,USA,,,0,FALSE,TRUE,Added via script
3055,Customer,MECUSA,,111,Active,Main,MECANEX USA INC.,119 WHITE OAK DRIVE,,BERLIN,CT,6037,USA,,,0,FALSE,TRUE,Added via script
3056,Customer,MERCOR,,111,Active,Main,MERCOM CORPOATION,1008 TRIDENT STREET,,HANAHAN,SC,29410,USA,,,0,FALSE,TRUE,Added via script
3057,Customer,MHDROC,,111,Active,Main,MHD ROCKLAND SERVICES,2111 BALDWIN AVE SUITE 8,,CRAFTON,MD,21114,USA,,,0,FALSE,TRUE,Added via script
3058,Customer,MHDROC,,0,Active,Ship01,MHD ROCKLAND SERVICES,7110 AIRPORT ROAD,,STARKE,FL,32091,USA,,,0,FALSE,TRUE,Added via script
3059,Customer,MICBOU,,111,Active,Main,MICHAEL BOURNE,471 C STREET BLDG SP-64 2ND F,,NORFOLK,VA,23511-3905,USA,,,0,FALSE,TRUE,Added via script
3060,Customer,MICROB,,111,Active,Main,MICHAEL ROBERTSON,P.O. BOX 10275,,LYNCHBURG,VI,24506,USA,,,0,FALSE,TRUE,Added via script
3061,Customer,MICBOU,,111,Active,Main,MICHEAL BOURNE,471 C. STREET BLDG SP-64 2ND FLR,,NORFOLK,VA,23511-3905,USA,,,0,FALSE,TRUE,Added via script
3062,Customer,MILSPE,,111,Active,Main,MIL SPEC SERVICES,720 W. CHEYNENNE AVE UNIT A90,,NORTH LAS VEGAS,NV,89030,USA,,,0,FALSE,TRUE,Added via script
3064,Customer,MILSER,,111,Active,Main,MILSPEC SERVICES INC.,72Z0 W CHEYENNE AV UNIT A90,,NORTH LAS VEGAS,NV,89030,USA,,,0,FALSE,TRUE,Added via script
3065,Customer,MIRTEC,,111,Active,Main,MIRION TECHNOLOGIES (CANBERRA),800 RESEARCH PARKWAY,,MERIDEN,CT,6450,USA,,,0,FALSE,TRUE,Added via script
3066,Customer,MIRTEC,,0,Active,Ship01,MIRION TECHNOLOGIES (CANBERRA),CANBERRA INDUSTRIES INC 800 RESEARCH PARKWAY,,MERIDEN,CT,6450,USA,,,0,FALSE,TRUE,Added via script
3067,Customer,MISENG,,111,Active,Main,MISC ENGINEERING LLC,580 T. M. WEST PARKWAY,,WEST,TX,76691,USA,,,0,FALSE,TRUE,Added via script
3068,Customer,MOBCOM,,111,Active,Main,MOBILE COMMUNICATIONS AMERICA,501 INDUSTRY DR.,,HAMPTON,VA,23661,USA,,,0,FALSE,TRUE,Added via script
3069,Customer,MOUELE,,111,Active,Main,MOUSER ELECTRONICS,1000 N. MAIN STREET,,MANSFIELD,TX,76063,USA,,,0,FALSE,TRUE,Added via script
3070,Customer,MURELC,,111,Active,Main,MURRAY-BENJAMIN ELC. CO. L.P.,397 WEST AVE,,STAMFORD,CT,6902,USA,,,0,FALSE,TRUE,Added via script
3071,Customer,NASAER,,111,Active,Main,NASCO AEROSPACE AND ELECTRONICS,3232 44TH AVE NORTH,,SAINT PETERSBURG,FL,33714,USA,,,0,FALSE,TRUE,Added via script
3072,Customer,NATCOM,,111,Active,Main,NATIONAL COMMUNICATIONS INC.,69 WASHINGTON STREET,,WEST ORANGE,NJ,07052-5538,USA,,,0,FALSE,TRUE,Added via script
3073,Customer,NAVAIR,,111,Active,Main,NAVAL AIR WARFARE CENTER,BLDG 20279 ROOM 107A,,CHINA LAKLE,CA,93555,USA,,,0,FALSE,TRUE,Added via script
3074,Customer,NAVAIR,,0,Active,Ship01,NAVAL AIR WARFARE CENTER,2680 WODEN ST. BLDG. 3304 SUITE # 1,,SAN DIEGO,CA,92136,USA,,,0,FALSE,TRUE,Added via script
3075,Customer,NAVSUP,,111,Active,Main,NAVSUP,1260 SNOW POINTE RD,,GOOSE CREEK,SC,29445,USA,,,0,FALSE,TRUE,Added via script
3076,Customer,NAVFLC,,111,Active,Main,NAVSUP FLC NORFOLK CONTRACTING,SSN784 BLDG 87-1 ARGONAUT ROAD,,NEW LONDON GROTON,CT,6349,USA,,,0,FALSE,TRUE,Added via script
3077,Customer,NAVWEA,,111,Active,Main,NAVSUP WEAPON SYSTEM SUPPORT,1968 GILBERT ST. BLDG W143 DWY 17,,NORFOLK,VI,23511-0001,USA,,,0,FALSE,TRUE,Added via script
3078,Customer,NAVNOR,,111,Active,Main,NAVY NORFOLK VA,1027 BELLINGER BLVD,,NORFOLK,VA,23551,USA,,,0,FALSE,TRUE,Added via script
3079,Customer,NEWYOR,,111,Active,Main,NEW YORK POWER AUTHORITY,830 BARNHART ISLAND ROAD,,MASSENA,NY,13662,USA,,,0,FALSE,TRUE,Added via script
3080,Customer,NIWATL,,111,Active,Main,NIWC ATLANTIC,1008 TRIDENT STREET,,HANAHAN,SC,29410,USA,,,0,FALSE,TRUE,Added via script
3081,Customer,NORLLC,,111,Active,Main,NORCATEC LLC.,11055 EXCELSIOR BLVD,,HOPKINS,MN,55343,USA,,,0,FALSE,TRUE,Added via script
3082,Customer,NORNAV,,111,Active,Main,NORFOLK NAVAL SHIPYARD,RECEIVING OFFICER BLDG 276 BEATTY STREET,,PORTSMOUTH,VA,23707-1031,USA,,,0,FALSE,TRUE,Added via script
3083,Customer,NORSHO,,111,Active,Main,NORTH SHORE COMPONETS,9 SAWGRASS DRIVE,,BELLPORT,NY,11713,USA,,,0,FALSE,TRUE,Added via script
3084,Customer,NORWIN,,111,Active,Main,NORTHERN WINGS REPAIRS INC.,6679 COUNTY ROAD 392,,NEWBERRY,MI,49868,USA,,,0,FALSE,TRUE,Added via script
3085,Customer,NRGENE,,111,Active,Main,NRG ENERGY LLC,4600 CARLSBAB BLVD.,,CARLSBAD,CL,92008,USA,,,0,FALSE,TRUE,Added via script
3086,Customer,NSWCDD,,111,Active,Main,NSWCDD,6220 TISDALE RD. STE. 159,,DAHLGREN,VA,22448,USA,,,0,FALSE,TRUE,Added via script
3087,Customer,NSWCDD,,0,Active,Ship01,NSWCDD,18444 FRONTAGE ROAD,,DAHLGREN,VA,22448,USA,,,0,FALSE,TRUE,Added via script
3088,Customer,OCEO.E,,111,Active,Main,OCEANEARS O.E. ENTERPRICES,1638 COTTONWOOD DRIVE NORTH,,CANTON,OH,44720-1102,USA,,,0,FALSE,TRUE,Added via script
3089,Customer,OLYAVI,,111,Active,Main,OLYMPIC AVIATION PARTS,16818 MARQUARDT AVE,,CERRITOES,CA,90703,USA,,,0,FALSE,TRUE,Added via script
3090,Customer,OMIELE,,111,Active,Main,OMICRON ELECTRO MECHANICAL,802 OLIVE AVE,,DALHART,TX,79022,USA,,,0,FALSE,TRUE,Added via script
3091,Customer,OMYINC,,111,Active,Main,OMYA INC,206 OMYA,,WEST FLORENCE,VT,5744,USA,,,0,FALSE,TRUE,Added via script
3092,Customer,OPTINT,,111,Active,Main,OPTIMAL INTEGRATED SOLUTIONS,RUTHERFORD ROAD SUITE 109,,CARLSBAD,CA,92008-7125,USA,,,0,FALSE,TRUE,Added via script
3094,Customer,P-TCOR,,111,Active,Main,P-TECHNOLOGY CORPORATION,1705 DALTON RD.,,PALOS VERDES STATES,CA,90274,USA,,,0,FALSE,TRUE,Added via script
3095,Customer,P.AINC,,111,Active,Main,P.A.R.T.S. INC.,210 ANDREW DRIVE,,STOCKBRIDGE,GA,30281,USA,,,0,FALSE,TRUE,Added via script
3096,Customer,PACTOO,,111,Active,Main,PACIFIC TOOL & SAFETY,722 SUNSET CT,,SHELTON,WA,98584,USA,,,0,FALSE,TRUE,Added via script
3097,Customer,PARTEC,,111,Active,Main,PARAMOUNT TECHNOLOGIES INC.,715 MAIN STREET,,FOLLANSBEE W,VA,26037,USA,,,0,FALSE,TRUE,Added via script
3098,Customer,PARTAR,,111,Active,Main,PART TARGET,19354 LONDELIUS STREET UNIT C,,NORTHRIDGE,CA,91324,USA,,,0,FALSE,TRUE,Added via script
3099,Customer,PARINC,,111,Active,Main,PARTTARGET INC,8461 LAKE WORTH RD STE 233D,,LAKE WORTH,FL,334,USA,,,0,FALSE,TRUE,Added via script
3100,Customer,PHIINC,,111,Active,Main,PHI INC.,P.O. BOX 90340,,LAFAYETTE,LA,70509-0340,USA,,,0,FALSE,TRUE,Added via script
3101,Customer,PHOTRA,,111,Active,Main,PHOENIX TRADING INC.,640 LOFSTRAND LANE,,ROCKVILLE,MD,20850,USA,,,0,FALSE,TRUE,Added via script
3102,Customer,PIOIND,,111,Active,Main,PIONEER INDUSTRIES INC,155 MARINE ST,,FARMINGDALE,NY,11735,USA,,,0,FALSE,TRUE,Added via script
3103,Customer,POPAFB,,111,Active,Main,POPE AFB OSSOSAT,3465 SECOND STREET BUILDING 179,,POEP AFB,NC,28308,USA,,,0,FALSE,TRUE,Added via script
3104,Customer,POTELE,,111,Active,Main,POTTER ELECTRIC INC.,1343 WILSON AVE,,NATIONAL CITY,CA,91950,USA,,,0,FALSE,TRUE,Added via script
3105,Customer,PRIMAT,,111,Active,Main,PRIORITY MATERIAL OFFICE US NAVY,467 W STREET,,BREMERTON,WA,98314,USA,,,0,FALSE,TRUE,Added via script
3106,Customer,PROTEC,,111,Active,Main,PROACTIVE TECHNOLOGIES INC.,415 DAVIS AVE.,,EAST BARKSDALE AFB,LA,71110,USA,,,0,FALSE,TRUE,Added via script
3107,Customer,P-TCOR,,111,Active,Main,P-TECHNOLOGY CORP,1705 DALTON RD.,,PALOS VERDES STATES,CA,90274,USA,,,0,FALSE,TRUE,Added via script
3108,Customer,PUGSOU,,111,Active,Main,PUGET SOUND NAVAL SHIPYARD,467 W ST. BLDG 467,,BREMERTON,WA,98314,USA,,,0,FALSE,TRUE,Added via script
3109,Customer,QUAAVI,,111,Active,Main,QUALITY AVIATION INC.,1503 DENISE CT,,KELLER,TX,76248,USA,,,0,FALSE,TRUE,Added via script
3110,Customer,RAYTHE,,111,Active,Main,RAYTHEON,5600 JEFFERSON HIGHWAY,,NEW ORLEANS,LA,70123-5124,USA,,,0,FALSE,TRUE,Added via script
3111,Customer,RAYTHE,,0,Active,Ship01,RAYTHEON,8248 MERCURY COURT,,SAN DIEGO,CA,92111,USA,,,0,FALSE,TRUE,Added via script
3112,Customer,RAYTHE,,0,Active,Ship02,RAYTHEON,DINE FACILITY 10059 S. HIGHWAY 371,,FARMINGTON,NM,87401,USA,,,0,FALSE,TRUE,Added via script
3113,Customer,RAYTHE,,0,Active,Ship03,RAYTHEON,8680 BALBOA AVE,,SAN DIEGO,CA,92123,USA,,,0,FALSE,TRUE,Added via script
3114,Customer,RAYTHE,,0,Active,Ship04,RAYTHEON,HIGHWAY 371 7 MILES SOUTH,,FARMINGTON,NM,8401,USA,,,0,FALSE,TRUE,Added via script
3115,Customer,RAYTHE,,0,Active,Ship05,RAYTHEON,9000 S. RITA ROAD,,TUCSON,AZ,85747,USA,,,0,FALSE,TRUE,Added via script
3116,Customer,RAYTHE,,0,Active,Ship06,RAYTHEON,1801 HUGHES DRIVE,,FULLERTON,CA,92834,USA,,,0,FALSE,TRUE,Added via script
3117,Customer,RAYTHE,,0,Active,Ship07,RAYTHEON,1151 E HERMANS RD.,,TUCSON,AZ,85756-9367,USA,,,0,FALSE,TRUE,Added via script
3118,Customer,REESE,,111,Active,Main,REESE,10405 E. MCDOWELL MNT RANCH RD 240,,SCOTTSDALE,AZ,85255,USA,,,0,FALSE,TRUE,Added via script
3119,Customer,REPSTE,,111,Active,Main,REPUBLIC STEEL,3049 LAKESHORE RD.,,BLASEDEN,NY,14219,USA,,,0,FALSE,TRUE,Added via script
3120,Customer,REXSYS,,111,Active,Main,REX SYSTEMS INC,10684 43RD AVE,,CHIPPEWA FALLS,WI,54729-8533,USA,,,0,FALSE,TRUE,Added via script
3121,Customer,ROCCOL,,111,Active,Main,ROCKWELL COLLINS,400 COLLINS RD NE,,CEDAR RAPIDS,IA,52498,USA,,,0,FALSE,TRUE,Added via script
3122,Customer,ROCCOL,,0,Active,Ship01,ROCKWELL COLLINS,9565 RIDDER ROAD SUITE 230,,WILSONVILLE,OR,97070-8735,USA,,,0,FALSE,TRUE,Added via script
3123,Customer,ROCCOL,,0,Active,Ship02,ROCKWELL COLLINS,3200 E. RENNER ROAD,,RICHARDSON,TX,75082-2402,USA,,,0,FALSE,TRUE,Added via script
3124,Customer,ROCCOL,,0,Active,Ship03,ROCKWELL COLLINS,2855 HEARTLAND DR,,CORALVILLE,IA,52241-2736,USA,,,0,FALSE,TRUE,Added via script
3126,Customer,ROCCOL,,0,Active,Ship05,ROCKWELL COLLINS,1757 CARR RD. SUITE 100,,E. CALEXICO,CA,92231,USA,,,0,FALSE,TRUE,Added via script
3127,Customer,ROUELE,,111,Active,Main,ROUTE ELECTRONICS,P.O. BOX 1339 1175 GLOBE AVE,,MOUNTAINSIDE,NJ,7092,USA,,,0,FALSE,TRUE,Added via script
3128,Customer,RTSINC,,111,Active,Main,RTS INC.,22750 GLEN DRIVE,,STERLING,VA,20164,USA,,,0,FALSE,TRUE,Added via script
3129,Customer,RUAG,,111,Active,Main,RUAG,119 WHITE OAK DRIVE,,BERLIN,CT,6037,USA,,,0,FALSE,TRUE,Added via script
3130,Customer,S&KLOG,,111,Active,Main,S&K LOGISTICS SERVICES,138 PEACHTREE PARKWAY,,BYRON,GA,31008,USA,,,0,FALSE,TRUE,Added via script
3131,Customer,S.OAVI,,111,Active,Main,S.O.I AVIATION,23965 VENTURA BLVD.,,CALABASAS,CA,91302,USA,,,0,FALSE,TRUE,Added via script
3132,Customer,S3INT,,111,Active,Main,S3 INTERNATIONAL LLC,2101 W CAMDEN RD,,MILWAUKEE,WI,53209,USA,,,0,FALSE,TRUE,Added via script
3133,Customer,SAAAUS,,111,Active,Main,SAAB AUSTRALIA,UNIT 2 71 LEICHHARDT STREET,,KINGSTON,AC,2604,USA,,,0,FALSE,TRUE,Added via script
3134,Customer,SAIC,,111,Active,Main,SAIC,1020 NORTH POINT INDUSTRIAL BLVD,,HANAHAN,SC,29410,USA,,,0,FALSE,TRUE,Added via script
3135,Customer,SANANT,,111,Active,Main,SAN ANTONIO LIGHTHOUSE FOR THE BLIND,110 WEST W STREET BLDG 215,,CANNON AFB,NM,88103,USA,,,0,FALSE,TRUE,Added via script
3136,Customer,SCIRES,,111,Active,Main,SCIENTIFIC RESEARCH CORP,1101 REMOUNT RD SUITE 500 N.,,CHARLESTON,SC,29406,USA,,,0,FALSE,TRUE,Added via script
3137,Customer,SCIRES,,0,Active,Ship01,SCIENTIFIC RESEARCH CORP,2300 WINDY RIDGE PARKWAY SUITE 400,,SOUTH ATLANTA,GA,30339,USA,,,0,FALSE,TRUE,Added via script
3138,Customer,SDCGRO,,111,Active,Main,SDC GROUP,C/O SBAS 509 VIKING DRIVE SUITE D,,VIRGINA BEACH,VA,23452,USA,,,0,FALSE,TRUE,Added via script
3139,Customer,SDIINC,,111,Active,Main,SDI INC.,1414 RADCLIFFE ST. SUITE 300,,BRISTOL,PA,19007,USA,,,0,FALSE,TRUE,Added via script
3140,Customer,SDIINC,,0,Active,Ship01,SDI INC.,400 RUNNING PUMP ROAD,,LANCASTER,PA,17603,USA,,,0,FALSE,TRUE,Added via script
3141,Customer,SERINC,,111,Active,Main,SERCO INC.,2115 PORTLOCK ROAD,,CHESAPEAKE,VA,23324,USA,,,0,FALSE,TRUE,Added via script
3142,Customer,SERINC,,0,Active,Ship01,SERCO INC.,1669 BRANDYWINE AVE. SUITE E,,CHULA VISTA,CA,91911,USA,,,0,FALSE,TRUE,Added via script
3143,Customer,SGTINC,,111,Active,Main,SGT INC.,2101 NASA PARKWAY BLDG 420,,MSOC HOUSTON,TX,77058,USA,,,0,FALSE,TRUE,Added via script
3144,Customer,SHEELE,,111,Active,Main,SHERBURN ELECTRONICS INC.,175 COMMERCE DRIVE,,HAUPPAUGE,NY,11788,USA,,,0,FALSE,TRUE,Added via script
3145,Customer,SHEELE,,0,Active,Ship01,SHERBURN ELECTRONICS INC.,P.O. BOX 11237,,HAUPPAUGE,NY,11788,USA,,,0,FALSE,TRUE,Added via script
3146,Customer,SHEELE,,0,Active,Ship02,SHERBURN ELECTRONICS INC.,175 COMMERCE DRIVE,,HAUPPAUGE,NY,11788,USA,,,0,FALSE,TRUE,Added via script
3147,Customer,SHIINT,,111,Active,Main,SHI INTERNATIONAL CORP.,800 ARLINGTON BLVD,,SWEDESBORO,NJ,8085,USA,,,0,FALSE,TRUE,Added via script
3148,Customer,SIGCOR,,111,Active,Main,SIGTRONICS CORPORATION,178 EAST ARROW HIGHWAY,,SAN DIMAS,CA,91773,USA,,,0,FALSE,TRUE,Added via script
3149,Customer,SIMINC,,111,Active,Main,SIMTEK INC.,7609 GERANIUM STREET,,BETHESDA,MD,20817,USA,,,0,FALSE,TRUE,Added via script
3150,Customer,SOAIND,,111,Active,Main,SOARTECH INDUSTRIES INC.,22 PARIS AVE. SUITE 102,,ROCKLEIGH,NJ,7647,USA,,,0,FALSE,TRUE,Added via script
3151,Customer,SONINC,,111,Active,Main,SONETRONICS INC.,1718 H STREET P.O. BOX L,,WEST BELMAR,NJ,7719,USA,,,0,FALSE,TRUE,Added via script
3152,Customer,SPACEX,,111,Active,Main,SPACEX,SAMRICK 1 ROCKET RD,,HAWTHORNE,CA,90250,USA,,,0,FALSE,TRUE,Added via script
3153,Customer,SPACEX,,0,Active,Ship01,SPACEX,12520 WILKIE AVE,,HAWTHORNE,CA,90250,USA,,,0,FALSE,TRUE,Added via script
3154,Customer,SPASSC,,111,Active,Main,SPAWARS SSC ATLANTIC,BLDG 78 MAGAZINE RD,,PORTSMOUTH,VA,23702,USA,,,0,FALSE,TRUE,Added via script
3155,Customer,SPEINC,,111,Active,Main,SPECTRONICS INC.,P.O. BOX 9517,,MOBILE,AL,9517,USA,,,0,FALSE,TRUE,Added via script
3156,Customer,STADIS,,111,Active,Main,STANDBUY DISTRIBUTORS INC.,5173 WARING RD STE. 40,,SAN DIEGO,CA,92120,USA,,,0,FALSE,TRUE,Added via script
3158,Customer,STACOR,,111,Active,Main,STARTZ CORPORATION,2034 MAIN STREET,,CROSS PLAINS,WI,53528,USA,,,0,FALSE,TRUE,Added via script
3159,Customer,SUPOFF,,111,Active,Main,SUPPLY OFFICER,USNS WASHINGTON CHAMBER (T-AKE 11),,FPO,AP,96662-4011,USA,,,0,FALSE,TRUE,Added via script
3160,Customer,SWITEC,,111,Active,Main,SWIFT TECH LLC,275A MARCUS BLVD,,HAUPPAUGE,NY,11788,USA,,,0,FALSE,TRUE,Added via script
3161,Customer,SYDOUT,,111,Active,Main,SYD'S OUTPOST & SUPPLY,1050 REMOUNT RD BLDG 3418 N.,,CHARLESTON,SC,29406,USA,,,0,FALSE,TRUE,Added via script
3162,Customer,T.E.,,111,Active,Main,T. E. & C. ELECTRONICS INC.,555 BROADHOLLOW ROAD SUITE 116,,MELVILLE,NY,11747,USA,,,0,FALSE,TRUE,Added via script
3163,Customer,TABMFG,,111,Active,Main,TABET MFG. CO. INC.,1336 BALLENTINE BL,,VD NORFOLK,VA,23504,USA,,,0,FALSE,TRUE,Added via script
3164,Customer,TACCOM,,111,Active,Main,TACTICAL COMM GROUP LLC,TWO HIGHWOOD DRIVE BUILDING 2 SUITE 200,,TEWKSBURY,MA,1876,USA,,,0,FALSE,TRUE,Added via script
3165,Customer,TALCOM,,111,Active,Main,TALBOT COMPANY,ENGINEERS BLDG # 27 1295 NO. BLVD.,,MANHASSET,NY,11030,USA,,,0,FALSE,TRUE,Added via script
3166,Customer,TALCOM,,0,Active,Ship01,TALBOT COMPANY,1295 NORTHERN BLVD.,,MANHASSET,NY,11030,USA,,,0,FALSE,TRUE,Added via script
3167,Customer,TALCOM,,0,Active,Ship02,TALBOT COMPANY,193 OLD MILL ROAD,,MANHASSET,NY,11030,USA,,,0,FALSE,TRUE,Added via script
3168,Customer,TEA,,111,Active,Main,TEA,16 MT. EBO RD.,,SOUTH BREWSTER,NY,10509,USA,,,0,FALSE,TRUE,Added via script
3169,Customer,TEA,,0,Active,Ship01,TEA,16 MT. EBO RD. SOUTH P.O. BOX 404,,BREWSTER,NY,10509,USA,,,0,FALSE,TRUE,Added via script
3170,Customer,TESELE,,111,Active,Main,TESCO ELECTRONICS INC.,1553 HANOVER STREET,,YORKTOWN HEIGHTS,NY,10598,USA,,,0,FALSE,TRUE,Added via script
3171,Customer,BOECOM,,111,Active,Main,THE BOEING COMPANY,2141 SOUTH 211TH STREET SUITE B,,DES MOINES,WA,98198,USA,,,0,FALSE,TRUE,Added via script
3172,Customer,BOECOM,,0,Active,Ship01,THE BOEING COMPANY,BILLY MITCHELL BLVD.,,SAN ANTONIO,TX,78226,USA,,,0,FALSE,TRUE,Added via script
3173,Customer,BOECOM,,0,Active,Ship02,THE BOEING COMPANY,1609 SE GRAND BLVD.,,OKLAHOMA CITY,OK,73129,USA,,,0,FALSE,TRUE,Added via script
3174,Customer,BOECOM,,0,Active,Ship03,THE BOEING COMPANY,1001 JACK FINNEY BLVD BLDG 209,,RECEING GREENVILLE,TX,75402,USA,,,0,FALSE,TRUE,Added via script
3175,Customer,HERCOM,,111,Active,Main,THE HERSHEY COMPANY,Y & S LANCASTER PLANT 400 RUNNING PUMP ROAD,,LANCASTER,PA,17603,USA,,,0,FALSE,TRUE,Added via script
3176,Customer,TIGPER,,111,Active,Main,TIGER PERFOMANCE PRODUCTS INC.,525 BULLIS ROAD,,WEST SENECA,NY,14224,USA,,,0,FALSE,TRUE,Added via script
3177,Customer,TOBARM,,111,Active,Main,TOBYHANNA ARMY DEPOT,11 HAP ARNOLD BLVD,,TOBYHANNA,PA,18466,USA,,,0,FALSE,TRUE,Added via script
3178,Customer,TRIALL,,111,Active,Main,TRITON ALLOYS CORP.,P.O. BOX 559,,MEDFORD,NY,11763,USA,,,0,FALSE,TRUE,Added via script
3179,Customer,TSGJON,,111,Active,Main,TSGT JONATHAN JWEDA,306 W. F. AVE,,EGLIN AFB,FL,32542,USA,,,0,FALSE,TRUE,Added via script
3180,Customer,TWBCOM,,111,Active,Main,TWB COMPANY LLC,1600 NADEAU ROAD,,MONROE,MI,48162,USA,,,0,FALSE,TRUE,Added via script
3181,Customer,U.SHI-,,111,Active,Main,U.S. HI-TECH INDUSTRIES CORPORATION,2441 W. 205TH ST. SUITE C 102,,TORRANCE,CA,90501-1463,USA,,,0,FALSE,TRUE,Added via script
3182,Customer,UNIDEF,,111,Active,Main,UNICAL DEFENSE,5200 SHEILA ST,,COMMERCE,CA,90040,USA,,,0,FALSE,TRUE,Added via script
3183,Customer,UNIDEF,,0,Active,Ship01,UNICAL DEFENSE INC,680 SOUTH LEMON AVE SUITE A,,CITY OF INDUSTRY,CA,91789,USA,,,0,FALSE,TRUE,Added via script
3184,Customer,UNITEC,,111,Active,Main,UNISOURCE TECHNOLOGY INC.,1320 STATE ROUTE 9 UNIT 509,,CHAMPLAIN,NY,12919,USA,,,0,FALSE,TRUE,Added via script
3185,Customer,USCELE,,111,Active,Main,USCG ELECTRONICS SYSTEMS,1050 REGISTER STREET,,NORTH CHARELSTON,SC,29405,USA,,,0,FALSE,TRUE,Added via script
3186,Customer,USCSUR,,111,Active,Main,USCG SURFACE FORCES LOGISTICS CTR,1301 CLAY STREET SUITE 807 N,,OAKLAND,CA,94612,USA,,,0,FALSE,TRUE,Added via script
3187,Customer,USCWAE,,111,Active,Main,USCGC WAESCHE,1 EAGLE ROAD BLDG 42,,ALAMEDA,CA,94501,USA,,,0,FALSE,TRUE,Added via script
3189,Customer,USSIWO,,111,Active,Main,USS IWO JIMA LHD-7,CC DIVISION,,FPO,AA,34094-1664,USA,,,0,FALSE,TRUE,Added via script
3190,Customer,USSSPR,,111,Active,Main,USS SPRUANCE (DDG-111),3581 CUMMINGS RD BLDG 3381,,SAN DIEGO,CA,92136,USA,,,0,FALSE,TRUE,Added via script
3191,Customer,VERSAT,,111,Active,Main,VERSATEK,508 FRONT STREET,,LITITZ,PA,17543,USA,,,0,FALSE,TRUE,Added via script
3192,Customer,VERAER,,111,Active,Main,VERTEX AEROSPACE SYSTEMS,2701 MOFFET AVENUE,,NAS KINGSVILLE,TX,78363,USA,,,0,FALSE,TRUE,Added via script
3193,Customer,VETTRA,,111,Active,Main,VETERANS TRADING COMPANY,LOCKHEED MARTIN EAGAN 3655 TAMPA ROAD,,OLDSMAR,FL,34677,USA,,,0,FALSE,TRUE,Added via script
3194,Customer,VTMIL,,111,Active,Main,VT MILCOM,1660 LOGAN AVE SUITE B,,SAN DIEGO,CA,92113,USA,,,0,FALSE,TRUE,Added via script
3195,Customer,VTMIL,,0,Active,Ship01,VT MILCOM,2505 INTERNATIONAL PARKWAY,,VIRGINIA BEACH,VA,23452,USA,,,0,FALSE,TRUE,Added via script
3196,Customer,VTSAA,,111,Active,Main,VT SAA INC,9800 JOHN SAUNDERS ROAD,,SAN ANTONIO,TX,78216,USA,,,0,FALSE,TRUE,Added via script
3197,Customer,VTG,,111,Active,Main,VTG,2505 INTERNATIONAL PARKWAY,,VIRGINIA BEACH,VA,23452,USA,,,0,FALSE,TRUE,Added via script
3198,Customer,W1ADLA,,111,Active,Main,W1A8 DLA DISTRIBUTION,2001 NORMANDY DRIVDE DOOR 113 TO 134,,NEW CUMBERLAND,PA,17070-5002,USA,,,0,FALSE,TRUE,Added via script
3199,Customer,WALELE,,111,Active,Main,WALLACE ELECTRICAL SYSTEM,2853 KENGRAY BLVD STE 4,,WEST FRANKFORT,IL,67896,USA,,,0,FALSE,TRUE,Added via script
3200,Customer,WBPAR,,111,Active,Main,WB PARTS INC.,2300 COMMERCE PARK DRIVE UNIT 15,,PALM BAY,FL,32905-2621,USA,,,0,FALSE,TRUE,Added via script
3201,Customer,WEBNAV,,111,Active,Main,WEBSTER NAVAIR,17673 WEBSTER FIELD ROAD BLDG 8139,,ST. INIGOES,MD,20684,USA,,,0,FALSE,TRUE,Added via script
3202,Customer,WESDES,,111,Active,Main,WESCO DISTRIBUTION INC.,4020 PLANTERS RD,,FORT SMITH,AR,72908,USA,,,0,FALSE,TRUE,Added via script
3203,Customer,WESDES,,0,Active,Ship01,WESCO DISTRIBUTION INC.,6570 TOWNLINE ROAD,,SYRACUSE,NY,13206,USA,,,0,FALSE,TRUE,Added via script
3204,Customer,WESDES,,0,Active,Ship02,WESCO DISTRIBUTION INC.,780 COMMONWEALTH DR SUITE 201,,WARRENDALE,PA,15086,USA,,,0,FALSE,TRUE,Added via script
3205,Customer,WESDIS,,111,Active,Main,WESCO DISTRIBUTION INC.,HAMPTON 418 ABERDEEN ROAD,,HAMPTON,VA,23661,USA,,,0,FALSE,TRUE,Added via script
3206,Customer,WESDIS,,0,Active,Ship01,WESCO DISTRIBUTION INC.,418 ABERDEEN RD,,HAMPTON,VA,23661,USA,,,0,FALSE,TRUE,Added via script
3207,Customer,WESMFG,,111,Active,Main,WESCO MFG INC.,299 DUFFY AVE,,HICKSVILLE,NY,11801,USA,,,0,FALSE,TRUE,Added via script
3208,Customer,WILCLA,,111,Active,Main,WILLIAM CLARKE A & P,7060 S HIGHWAY 105,,HARDINGSBURG,KY,40143,USA,,,0,FALSE,TRUE,Added via script
3209,Customer,WININT,,111,Active,Main,WINDWARD INTERNATIONAL LLC,34711 CAMINO CAPISTRANO,,CAPISTRANO BEACH,CA,92624,USA,,,0,FALSE,TRUE,Added via script
3210,Customer,WININT,,0,Active,Ship01,WINDWARD INTERNATIONAL LLC,8224 CREBS AVE.,,RESEDA,CA,91335,USA,,,0,FALSE,TRUE,Added via script
3211,Customer,WORMIC,,111,Active,Main,WORLD MICRO COMPONENTS INC.,205 HEMBREE PARK DRIVE SUITE 105,,ROSEWELL,GA,30076,USA,,,0,FALSE,TRUE,Added via script
3212,Customer,WORIND,,111,Active,Main,WORTHINGTON INDUSTRIES INC.,200 OLD WILSON BRIDGE RD,,COLUMBUS,OH,43085,USA,,,0,FALSE,TRUE,Added via script
3213,Customer,Y&SCAN,,111,Active,Main,Y&S CANDIES,400 RUNNING PUMP ROAD,,LANCASTER,PA,17603,USA,,,0,FALSE,TRUE,Added via script
3214,Customer,ZEITEC,,111,Active,Main,ZEIDO TECNOLOGIES LLC,45 BAY HILL DR. UNIT D,,LATROBE,PA,15650,USA,,,0,FALSE,TRUE,Added via script
3215,Customer,ZONES,,111,Active,Main,ZONES,1102 15TH STREET S.W. SUITE 102,,AUBURN,WA,98001,USA,,,0,FALSE,TRUE,Added via script
